place_name,shared,single,post,lat,lon
1001 Tiverton Avenue,900.0,0.0,1,34.0614,-118.44328
1030 Tiverton Avenue,825.0,1300.0,5,34.061095,-118.44289099999999
1040 Glendon Avenue,734.0,1500.0,9,34.061682,-118.44407700000001
10535 Wilshire Road,0.0,0.0,1,34.472729,-116.89044299999999
10630 Eastborne Avenue,837.0,0.0,1,34.05389,-118.43106999999999
10635 Wilshire Boulevard,625.0,0.0,2,34.06138,-118.43484
10747 Wilshire Boulevard,0.0,1425.0,2,34.060761,-118.437648
10750 Wilshire Boulevard,900.0,1750.0,2,34.06002,-118.43843999999999
10801 Rose Avenue,430.0,0.0,4,34.02564,-118.415852
10811 Ashton Avenue,673.7777777777778,1050.0,22,34.058840000000025,-118.44000999999997
10833 Wilshire Boulevard,900.0,1200.0,2,34.059707,-118.44116499999998
10905 Ohio Avenue,720.0,0.0,3,34.053490000000004,-118.44207
10911 Rochester Avenue,537.5,1400.0,6,34.056192,-118.44307300000001
10916 Ashton Avenue,535.0,0.0,7,34.057520000000004,-118.44394
10919 Strathmore Drive,593.5,0.0,3,34.067890000000006,-118.4497
10933 Rochester Avenue,651.1904761904761,1430.7142857142858,34,34.05602,-118.44360199999994
10941 Strathmore Drive,716.5,1000.0,4,34.06713,-118.450042
10944 Strathmore Drive,691.6666666666666,1778.125,36,34.06682,-118.44968000000004
10954 Roebling Avenue,0.0,0.0,5,34.065636,-118.44873400000002
10955 Roebling Avenue,640.0,0.0,3,34.065238,-118.449275
10960 Ashton Avenue,660.0,0.0,3,34.057091,-118.44552400000002
10965 Rochester Avenue,0.0,1700.0,1,34.05576,-118.44474
10965 Strathmore Drive,680.7368421052631,0.0,33,34.066490000000016,-118.45024000000002
10966 Roebling Avenue,750.0,1500.0,12,34.06528000000001,-118.44904999999996
10969 Rochester Avenue,724.5,0.0,7,34.05576,-118.44483000000001
10969 Wellworth Avenue,0.0,1225.0,1,34.056519,-118.445
10974 Roebling Avenue,620.0,0.0,2,34.064999,-118.449409
10980 Strathmore Drive,700.0,1600.0,3,34.066082,-118.44998300000002
10980 Wellworth Avenue,615.7142857142857,1560.0,9,34.056152000000004,-118.44555000000001
10982 Roebling Avenue,747.0909090909091,1676.1538461538462,58,34.06507000000005,-118.44924999999992
10983 Wellworth Avenue,731.4444444444445,1400.0,13,34.056353,-118.44563900000001
10984 Strathmore Drive,866.6666666666666,1500.0,9,34.065949999999994,-118.45005000000002
10985 Roebling Avenue,600.0,0.0,1,34.0652,-118.44961299999999
10989 Roebling Avenue,728.75,0.0,6,34.064675,-118.44978000000002
10992 Ashton Avenue,600.0,0.0,3,34.05686,-118.44634
10998 Roebling Avenue,550.0,0.0,1,34.064669,-118.449615
10998 Strathmore Drive,650.0,0.0,1,34.065819,-118.45027900000001
11000 Ophir Drive,800.0,0.0,2,34.068090000000005,-118.4518
11021 Ophir Drive,750.0,1050.0,2,34.068272,-118.452179
11024 Strathmore Drive,878.3333333333334,0.0,14,34.06471,-118.45062000000003
11026 Strathmore Drive,584.0,0.0,3,34.06457,-118.45066000000001
11044 Ophir Drive,650.6666666666666,1050.0,5,34.06812,-118.452792
11050 Strathmore Drive,750.0,2545.0,16,34.06405999999999,-118.45142000000004
11063 Ophir Drive,650.0,0.0,2,34.068386,-118.45439499999999
11070 Strathmore Drive,648.0,1100.0,3,34.064053,-118.45215400000001
11088 Ophir Drive,594.125,2015.0,11,34.068128,-118.45408999999997
11090 Ophir Drive,722.8780487804878,0.0,71,34.06817,-118.45452000000014
11090 Strathmore Drive,825.0,0.0,6,34.063976000000004,-118.45250399999999
11099 Ophir Drive,950.0,1900.0,2,34.068490999999995,-118.45430400000001
11130 Rose Avenue,800.0,0.0,2,34.021426,-118.42305
11211 Greenlawn Avenue,0.0,1030.0,1,34.000864,-118.40398200000001
1122 Gayley Avenue,0.0,1650.0,1,34.059639000000004,-118.445877
11346 Iowa Avenue,0.0,1500.0,2,34.044334,-118.44886699999999
11415 Venice Boulevard,800.0,0.0,1,34.01048,-118.42205
11668 Kiowa Avenue,0.0,1492.0,1,34.05123,-118.46211000000001
11722 Mayfield Avenue,465.0,0.0,1,34.051228,-118.46388300000001
11740 Wilshire Boulevard,724.6666666666666,0.0,4,34.048764,-118.46141100000001
11811 Venice Boulevard,592.5,1273.0,6,34.008052,-118.42611999999998
1235 Federal Avenue,0.0,1995.0,1,34.049609999999994,-118.45853999999999
1249 Brockton Avenue,900.0,1300.0,2,34.04463,-118.46428999999999
1253 Federal Avenue,610.1666666666666,0.0,6,34.049325,-118.458183
1295 Federal Avenue,580.0,0.0,1,34.048512,-118.45744099999999
1300 Midvale Avenue,500.0,1375.0,9,34.0564,-118.44426000000001
1350 Midvale Avenue,719.2307692307693,0.0,19,34.055639,-118.44318500000004
1370 Veteran Avenue,666.0,0.0,1,34.054607,-118.44483100000001
1375 Midvale Avenue,616.0,1400.0,13,34.055363,-118.44345300000002
1380 Midvale Avenue,670.7777777777778,1350.0,18,34.05531,-118.44291000000001
1390 Veteran Avenue,730.0,0.0,3,34.05418,-118.4445
1394 Midvale Avenue,550.0,1341.6666666666667,7,34.05505,-118.44268000000001
1395 Kelton Avenue,900.0,0.0,11,34.05435999999999,-118.44382999999999
1400 Midvale Avenue,774.625,1600.0,20,34.054669999999994,-118.44234999999999
1409 Midvale Avenue,750.0,0.0,3,34.05444,-118.44261000000002
1414 Greenfield Avenue,500.0,0.0,1,34.052546,-118.444453
1417 Butler Avenue,0.0,1250.0,1,34.04786,-118.45411499999999
1421 Midvale Avenue,0.0,1200.0,1,34.054181,-118.44238
1428 Kelton Avenue,663.25,0.0,5,34.053618,-118.442725
1433 Armacost Avenue,609.0,0.0,2,34.042916999999996,-118.461385
1433 Federal Avenue,0.0,1715.0,5,34.04635,-118.4556
1440 Veteran Avenue,500.0,0.0,1,34.052929,-118.44337
1441 Veteran Avenue,775.0,0.0,2,34.052677,-118.443731
1512 Butler Avenue,0.0,0.0,2,34.04634,-118.45245
1529 Veteran Avenue,0.0,1300.0,2,34.051825,-118.442659
1539 Beloit Avenue,850.0,1600.0,2,34.047740000000005,-118.44842
1568 Manning Avenue,0.0,0.0,1,34.055960999999996,-118.43433300000001
1615 Greenfield Avenue,756.25,0.0,4,34.050186,-118.442742
1623 Selby Avenue,0.0,1050.0,5,34.053843,-118.43683000000001
1637 Veteran Avenue,0.0,0.0,1,34.050219,-118.44145400000001
1661 Selby Avenue,925.0,1025.0,3,34.05307,-118.43604999999998
1675 Colby Avenue,595.0,0.0,2,34.04318,-118.45153
1731 Barry Avenue,0.0,1500.0,1,34.040936,-118.452454
1785 Beloit Avenue,0.0,1113.0,1,34.044788,-118.445641
1800 Holmby Avenue,700.0,0.0,2,34.055974,-118.42586200000001
1835 Camden Avenue,0.0,1150.0,2,34.046091,-118.44055300000001
1841 Veteran Avenue,800.0,0.0,1,34.047619,-118.439453
1852 Kelton Avenue,0.0,1197.5,4,34.047889,-118.437752
2015 Midvale Drive,715.0,0.0,1,32.728472,-117.10941899999999
3165 Sawtelle Boulevard,0.0,1700.0,1,34.023821000000005,-118.429864
3221 Overland Avenue,750.0,1500.0,2,34.02895,-118.414978
3230 Overland Avenue,577.5,0.0,2,34.028923,-118.41460500000001
3501 Tilden Avenue,700.0,1400.0,4,34.020059,-118.419976
3665 Hughes Avenue,0.0,1000.0,1,34.026081,-118.401016
3701 Overland Avenue,0.0,1150.0,1,34.02081,-118.40891
3767 Mentone Avenue,625.0,0.0,2,34.020579999999995,-118.40567
3780 Keystone Ave,0.0,1470.0,1,34.027859,-118.402679
403 Landfair Avenue,652.6923076923077,1260.0,37,34.070112000000016,-118.45326100000005
406 Landfair Avenue,675.0,0.0,4,34.070159999999994,-118.4528
406 Veteran Avenue,750.0,0.0,3,34.07002,-118.45477999999999
411 Kelton Avenue,755.7142857142857,1100.0,15,34.06984,-118.45397000000001
414 Landfair Avenue,723.3333333333334,0.0,14,34.06996900000001,-118.452681
415 Gayley Avenue,768.7272727272727,0.0,22,34.070196,-118.45453899999998
423 Kelton Avenue,607.3529411764706,1400.0,20,34.069632999999996,-118.453953
424 Kelton Avenue,706.8571428571429,1140.0,48,34.06986499999999,-118.45369300000006
424 Landfair Avenue,616.8,1200.0,39,34.06982000000001,-118.45253999999993
424 Veteran Avenue,682.36,1500.0,31,34.06946900000002,-118.45485700000006
430 Kelton Avenue,747.875,2050.0,32,34.06937100000002,-118.4536280000001
433 Kelton Avenue,714.6666666666666,2200.0,32,34.069229999999976,-118.45391000000006
433 Midvale Avenue,900.0,1027.6666666666667,10,34.069430000000004,-118.45280199999999
437 Gayley Avenue,772.9285714285714,1300.0,26,34.07025999999999,-118.45347300000002
440 Veteran Avenue,718.3333333333334,0.0,4,34.068975,-118.45468899999999
442 Kelton Avenue,807.5,0.0,2,34.0691,-118.45358999999999
442 Landfair Avenue,667.0,0.0,1,34.06955,-118.4521
443 Midvale Avenue,883.0,0.0,7,34.06921,-118.45281999999999
445 Landfair Avenue,748.125,0.0,26,34.069181999999984,-118.45220100000004
447 Landfair Avenue,750.0,0.0,2,34.069137,-118.452132
448 Kelton Avenue,0.0,1650.0,2,34.068909999999995,-118.45355
450 Midvale Avenue,750.0,0.0,2,34.068940000000005,-118.4524
455 Kelton Avenue,640.0,0.0,3,34.06878,-118.45386
457 Kelton Avenue,0.0,1000.0,3,34.068706,-118.45392499999998
457 Midvale Avenue,730.0,0.0,1,34.068571999999996,-118.452529
461 Midvale Avenue,588.0,0.0,2,34.068759,-118.45280100000001
467 Landfair Avenue,575.0,0.0,3,34.068917,-118.45168400000001
471 Midvale Avenue,650.0,0.0,1,37.525079999999996,-122.299443
473 Midvale Avenue,620.0,0.0,3,37.525079999999996,-122.299443
476 Landfair Avenue,0.0,1550.0,1,34.068979999999996,-118.45136000000001
476 Midvale Avenue,900.0,0.0,2,34.068588,-118.45246100000001
478 Landfair Avenue,650.0,0.0,2,34.068863,-118.451222
483 Gayley Avenue,676.0769230769231,1600.0,15,34.070069999999994,-118.45192999999996
500 Landfair Avenue,517.0,0.0,1,34.06864,-118.45096000000001
501 Gayley Avenue,705.7692307692307,1825.0,20,34.06974000000001,-118.45137
505 Gayley Avenue,591.6,1284.2857142857142,18,34.069612,-118.451243
507 Glenrock Avenue,723.5,0.0,32,34.06779900000001,-118.45168300000009
509 Landfair Avenue,550.0,0.0,1,34.068552000000004,-118.45106499999999
510 Midvale Avenue,0.0,0.0,1,34.067959,-118.452454
511 Landfair Avenue,525.0,0.0,1,34.068525,-118.45103600000002
512 Veteran Avenue,633.0851063829788,1402.7777777777778,151,34.067955000000076,-118.454604
515 Gayley Avenue,800.0,0.0,1,34.06944,-118.450874
515 Kelton Avenue,720.6923076923077,1358.3333333333333,78,34.06775299999998,-118.45387200000002
515 Landfair Avenue,587.5,0.0,2,34.068019,-118.450694
515 Veteran Avenue,600.0,0.0,1,34.067496000000006,-118.454748
516 Glenrock Avenue,690.0,1400.0,29,34.067469999999986,-118.45112400000004
519 Glenrock Avenue,748.9333333333333,0.0,17,34.067632,-118.45151299999999
520 Kelton Avenue,620.0227272727273,1844.4444444444443,64,34.06778000000002,-118.45342999999981
527 Midvale Avenue,715.483870967742,1276.5714285714287,52,34.067452,-118.45272899999992
528 Midvale Avenue,572.0,0.0,1,34.067403999999996,-118.452265
529 Glenrock Avenue,750.0,0.0,1,34.06728,-118.45146000000001
530 Veteran Avenue,649.2222222222222,1531.25,14,34.06738000000001,-118.45454999999997
532 Midvale Way,665.0,1351.5,3,37.884871000000004,-122.543471
533 Glenrock Avenue,600.0,0.0,2,34.067188,-118.451241
540 Glenrock Avenue,711.0,0.0,3,34.067121,-118.45096000000001
540 Kelton Avenue,550.0,0.0,25,34.067166000000014,-118.45332300000004
540 Landfair Avenue,725.0,0.0,5,34.067782,-118.450061
540 Midvale Avenue,697.5,1955.0,46,34.06724000000003,-118.45222000000004
542 Glenrock Avenue,600.0,1612.5,3,34.06697,-118.45088400000002
543 Landfair Avenue,750.0,0.0,1,34.06743,-118.45025
545 Glenrock Avenue,790.0,0.0,13,34.067365,-118.45122199999999
547 Landfair Avenue,695.0,0.0,1,34.06739,-118.45022
549 Kelton Avenue,680.0,0.0,8,34.066841000000004,-118.453537
550 Veteran Avenue,643.0,1549.8333333333333,71,34.06697600000003,-118.45451200000007
555 Gayley Avenue,0.0,1433.3333333333333,4,34.068855,-118.44989
555 Kelton Avenue,750.0,1700.0,2,34.066829999999996,-118.453721
555 Levering Avenue,831.0,2100.0,6,34.066489999999995,-118.45438999999999
556 Midvale Avenue,837.5,0.0,4,34.066790000000005,-118.45194
600 Kelton Avenue,780.0,0.0,2,34.066144,-118.453194
601 Midvale Avenue,742.5,0.0,4,34.066089,-118.451973
601 Westholme Avenue,756.4285714285714,0.0,15,34.06934999999999,-118.43846000000003
605 Kelton Avenue,708.3333333333334,1425.0,19,34.06626000000001,-118.45369000000001
606 Levering Avenue,601.3888888888889,0.0,21,34.06676900000001,-118.45308700000002
610 Levering Avenue,737.5,0.0,7,34.06654,-118.45286
611 Levering Avenue,618.0,0.0,2,34.066187,-118.452744
612 Midvale Avenue,533.0,0.0,1,34.065907,-118.45161100000001
616 Kelton Avenue,780.0,0.0,2,34.065940000000005,-118.4531
626 Midvale Avenue,900.0,0.0,1,34.06557,-118.45156999999999
627 Kelton Avenue,747.5,0.0,2,34.065969,-118.453254
629 Gayley Avenue,855.0,0.0,4,34.067458,-118.44852
629 Levering Avenue,750.0,0.0,3,34.066179999999996,-118.4524
630 Kelton Avenue,612.0,1100.0,6,34.06584,-118.45303999999999
631 Kelton Avenue,653.7333333333333,0.0,18,34.06553699999999,-118.45335
638 Kelton Avenue,900.0,1800.0,2,34.06563,-118.45286000000002
638 Landfair Avenue,784.4,0.0,32,34.06653000000003,-118.44862999999997
640 Veteran Avenue,561.0,1000.0,14,34.06552,-118.45416000000002
641 Gayley Avenue,779.6,1600.0,14,34.066930000000006,-118.44822999999998
644 Landfair Avenue,683.3333333333334,0.0,4,34.066313,-118.448453
646 Midvale Avenue,800.0,0.0,1,34.06501,-118.45159
649 Gayley Avenue,800.0,0.0,3,34.06673,-118.44788
650 Landfair Avenue,625.0,1100.0,10,34.06618100000001,-118.44831400000001
650 Levering Avenue,809.0,1200.0,9,34.06655999999999,-118.45155
652 Veteran Avenue,642.0,0.0,9,34.06511,-118.453883
655 Kelton Avenue,631.5428571428571,1283.3333333333333,44,34.06510200000002,-118.45317800000002
656 Kelton Avenue,770.0,0.0,3,34.065194,-118.45267
658 Kelton Avenue,710.0,0.0,1,34.06512,-118.45265
660 Veteran Avenue,657.5,1518.75,22,34.06501000000002,-118.45391799999999
662 Kelton Avenue,0.0,0.0,6,34.06504,-118.45263999999999
667 Midvale Avenue,858.0,0.0,2,34.065048,-118.45182
670 Kelton Avenue,885.0,0.0,4,34.064859999999996,-118.45263
671 Landfair Avenue,400.0,0.0,1,34.0656,-118.4482
679 Gayley Avenue,764.5294117647059,1550.0,33,34.066130000000015,-118.44788000000005
685 Kelton Avenue,683.3333333333334,0.0,11,34.06459,-118.45281999999999
690 Landfair Avenue,0.0,0.0,1,34.066134000000005,-118.448472
690 Veteran Avenue,624.2272727272727,1750.0,34,34.064296999999996,-118.45316300000003
691 Levering Avenue,752.5,1016.6666666666666,9,34.0657,-118.45069
700 Levering Avenue,633.3333333333334,0.0,5,34.065536,-118.45026200000002
705 Gayley Avenue,627.0,1400.0,8,34.06542000000001,-118.44813
714 Veteran Avenue,430.0,0.0,1,34.063688,-118.45263500000001
715 South Barrington Avenue,0.0,1000.0,1,34.05584,-118.46763999999999
729 Gayley Avenue,650.0,1200.0,11,34.06463000000001,-118.44838000000003
735 Levering Avenue,693.3333333333334,0.0,4,34.064479999999996,-118.45016000000001
738 Levering Avenue,550.0,0.0,3,34.0661,-118.450672
740 Weyburn Terrace,0.0,1300.0,3,34.063140999999995,-118.45127099999998
747 Gayley Avenue,720.3076923076923,1200.0,64,34.064304,-118.44841300000006
785 Weyburn Terrace,0.0,1303.3333333333333,3,34.062859,-118.451149
801 Levering Avenue,0.0,1100.0,2,34.06414,-118.45003
803 Levering Avenue,0.0,2100.0,1,34.064259,-118.44986000000002
870 Hilgard Avenue,693.3333333333334,1175.0,16,34.06468999999999,-118.44070000000005
888 Hilgard Avenue,0.0,1500.0,1,34.06469,-118.440849
925 Gayley Avenue,596.875,1166.0,18,34.06711,-118.44798899999998
925 Weyburn Place,0.0,1150.0,2,34.062271,-118.44904299999999
939 Gayley Avenue,800.0,0.0,2,34.062529999999995,-118.44842
939 Palm Avenue,775.0,1200.0,3,34.396427,-119.51641799999999
940 Tiverton Avenue,679.0227272727273,2050.0,67,34.06266299999999,-118.442505
944 Tiverton Avenue,532.0,0.0,1,34.06244,-118.44259
969 Hilgard Avenue,775.0,1550.0,2,34.062102,-118.44187099999999
972 Hilgard Avenue,715.0,1390.0,13,34.061890999999996,-118.44140399999999
982 Strathmore Road,982.0,0.0,1,34.112437,-117.17910800000001
